[{"OBJECT_NAME":"STARLINK-4384","OBJECT_ID":"2022-084AF","EPOCH":"2026-03-09T17:41:43.247040","MEAN_MOTION":15.05639874,"ECCENTRICITY":0.00012328,"INCLINATION":97.6036,"RA_OF_ASC_NODE":131.3326,"ARG_OF_PERICENTER":70.6402,"MEAN_ANOMALY":289.4958,"EPHEMERIS_TYPE":0,"CLASSIFICATION_TYPE":"U","NORAD_CAT_ID":53218,"ELEMENT_SET_NO":999,"REV_AT_EPOCH":19991,"BSTAR":-5.431446e-6,"MEAN_MOTION_DOT":-1.39e-6,"MEAN_MOTION_DDOT":0},{"OBJECT_NAME":"COSMOS 2084","OBJECT_ID":"1990-055A","EPOCH":"2026-03-09T23:42:10.320480","MEAN_MOTION":15.05654003,"ECCENTRICITY":0.00170188,"INCLINATION":62.7921,"RA_OF_ASC_NODE":334.5624,"ARG_OF_PERICENTER":190.1371,"MEAN_ANOMALY":169.9389,"EPHEMERIS_TYPE":0,"CLASSIFICATION_TYPE":"U","NORAD_CAT_ID":20663,"ELEMENT_SET_NO":999,"REV_AT_EPOCH":93636,"BSTAR":0.00023056361,"MEAN_MOTION_DOT":3.154e-5,"MEAN_MOTION_DDOT":0}]
